[{"OBJECT_NAME":"STARLINK-30802","OBJECT_ID":"2023-166A","EPOCH":"2026-03-09T16:21:44.816544","MEAN_MOTION":15.30185512,"ECCENTRICITY":0.00010773,"INCLINATION":53.1605,"RA_OF_ASC_NODE":219.9521,"ARG_OF_PERICENTER":72.7242,"MEAN_ANOMALY":287.3877,"EPHEMERIS_TYPE":0,"CLASSIFICATION_TYPE":"U","NORAD_CAT_ID":58150,"ELEMENT_SET_NO":999,"REV_AT_EPOCH":13317,"BSTAR":2.4410895e-5,"MEAN_MOTION_DOT":3.64e-6,"MEAN_MOTION_DDOT":0},{"OBJECT_NAME":"COSMOS 1782","OBJECT_ID":"1986-074A","EPOCH":"2026-03-09T22:40:22.374624","MEAN_MOTION":15.33314157,"ECCENTRICITY":0.00054418,"INCLINATION":82.5242,"RA_OF_ASC_NODE":238.1482,"ARG_OF_PERICENTER":197.7479,"MEAN_ANOMALY":162.3574,"EPHEMERIS_TYPE":0,"CLASSIFICATION_TYPE":"U","NORAD_CAT_ID":16986,"ELEMENT_SET_NO":999,"REV_AT_EPOCH":13134,"BSTAR":0.00042191031,"MEAN_MOTION_DOT":0.00013623,"MEAN_MOTION_DDOT":0}]
